{
  "type": "FeatureCollection",
  "features": [
    {
      "type": "Feature",
      "properties": {
        "norad_id": 66575,
        "name": "STARLINK-35810",
        "group": "last-30-days",
        "lat": -42.951377650099396,
        "lon": -28.548098565028706,
        "alt_km": 401.65204533609904,
        "timestamp": "2025-12-22T11:33:19.152919+00:00",
        "meta_object_name": "STARLINK-35810",
        "meta_object_id": "2025-268U",
        "meta_epoch": "2025-12-22T04:00:01.998720",
        "meta_mean_motion": 15.5681812,
        "meta_eccentricity": 0.0001988,
        "meta_inclination": 43.0006,
        "meta_ra_of_asc_node": 65.8764,
        "meta_arg_of_pericenter": 247.0293,
        "meta_mean_anomaly": 55.2839,
        "meta_ephemeris_type": 0,
        "meta_classification_type": "U",
        "meta_norad_cat_id": 66575,
        "meta_element_set_no": 999,
        "meta_rev_at_epoch": 608,
        "meta_bstar": -0.020691,
        "meta_mean_motion_dot": -0.01372409,
        "meta_mean_motion_ddot": 0,
        "tle_line1": "1 66575U 25268U   25356.16668980 -.01372409  00000+0 -20691-1 0  9993",
        "tle_line2": "2 66575  43.0006  65.8764 0001988 247.0293  55.2839 15.56818120  6086"
      },
      "geometry": {
        "type": "Point",
        "coordinates": [
          -28.548098565028706,
          -42.951377650099396
        ]
      }
    },
    {
      "type": "Feature",
      "properties": {
        "norad_id": 66576,
        "name": "STARLINK-35814",
        "group": "last-30-days",
        "lat": -42.979926853971484,
        "lon": -25.757391818144608,
        "alt_km": 400.35963454404464,
        "timestamp": "2025-12-22T11:33:19.152929+00:00",
        "meta_object_name": "STARLINK-35814",
        "meta_object_id": "2025-268V",
        "meta_epoch": "2025-12-22T04:00:01.998720",
        "meta_mean_motion": 15.56484773,
        "meta_eccentricity": 0.000189,
        "meta_inclination": 43.0007,
        "meta_ra_of_asc_node": 65.8717,
        "meta_arg_of_pericenter": 250.1259,
        "meta_mean_anomaly": 54.1533,
        "meta_ephemeris_type": 0,
        "meta_classification_type": "U",
        "meta_norad_cat_id": 66576,
        "meta_element_set_no": 999,
        "meta_rev_at_epoch": 608,
        "meta_bstar": -0.0028711,
        "meta_mean_motion_dot": -0.00203969,
        "meta_mean_motion_ddot": 0,
        "tle_line1": "1 66576U 25268V   25356.16668980 -.00203969  00000+0 -28711-2 0  9999",
        "tle_line2": "2 66576  43.0007  65.8717 0001890 250.1259  54.1533 15.56484773  6087"
      },
      "geometry": {
        "type": "Point",
        "coordinates": [
          -25.757391818144608,
          -42.979926853971484
        ]
      }
    },
    {
      "type": "Feature",
      "properties": {
        "norad_id": 66577,
        "name": "STARLINK-35815",
        "group": "last-30-days",
        "lat": -42.944536744087706,
        "lon": -23.13903662659427,
        "alt_km": 400.35930019852003,
        "timestamp": "2025-12-22T11:33:19.152939+00:00",
        "meta_object_name": "STARLINK-35815",
        "meta_object_id": "2025-268W",
        "meta_epoch": "2025-12-22T04:00:01.998720",
        "meta_mean_motion": 15.56428878,
        "meta_eccentricity": 0.0001599,
        "meta_inclination": 43.0005,
        "meta_ra_of_asc_node": 65.8668,
        "meta_arg_of_pericenter": 260.3185,
        "meta_mean_anomaly": 45.889,
        "meta_ephemeris_type": 0,
        "meta_classification_type": "U",
        "meta_norad_cat_id": 66577,
        "meta_element_set_no": 999,
        "meta_rev_at_epoch": 608,
        "meta_bstar": -0.00048357,
        "meta_mean_motion_dot": -0.00035316,
        "meta_mean_motion_ddot": 0,
        "tle_line1": "1 66577U 25268W   25356.16668980 -.00035316  00000+0 -48357-3 0  9998",
        "tle_line2": "2 66577  43.0005  65.8668 0001599 260.3185  45.8890 15.56428878  6085"
      },
      "geometry": {
        "type": "Point",
        "coordinates": [
          -23.13903662659427,
          -42.944536744087706
        ]
      }
    },
    {
      "type": "Feature",
      "properties": {
        "norad_id": 66578,
        "name": "STARLINK-35743",
        "group": "last-30-days",
        "lat": -42.849796314799576,
        "lon": -20.530717798286837,
        "alt_km": 400.41764933526065,
        "timestamp": "2025-12-22T11:33:19.152949+00:00",
        "meta_object_name": "STARLINK-35743",
        "meta_object_id": "2025-268X",
        "meta_epoch": "2025-12-22T04:00:01.998720",
        "meta_mean_motion": 15.56463182,
        "meta_eccentricity": 0.0001665,
        "meta_inclination": 43.0005,
        "meta_ra_of_asc_node": 65.8624,
        "meta_arg_of_pericenter": 255.3587,
        "meta_mean_anomaly": 52.7616,
        "meta_ephemeris_type": 0,
        "meta_classification_type": "U",
        "meta_norad_cat_id": 66578,
        "meta_element_set_no": 999,
        "meta_rev_at_epoch": 608,
        "meta_bstar": -0.0018251,
        "meta_mean_motion_dot": -0.00130872,
        "meta_mean_motion_ddot": 0,
        "tle_line1": "1 66578U 25268X   25356.16668980 -.00130872  00000+0 -18251-2 0  9991",
        "tle_line2": "2 66578  43.0005  65.8624 0001665 255.3587  52.7616 15.56463182  6082"
      },
      "geometry": {
        "type": "Point",
        "coordinates": [
          -20.530717798286837,
          -42.849796314799576
        ]
      }
    },
    {
      "type": "Feature",
      "properties": {
        "norad_id": 66579,
        "name": "STARLINK-35868",
        "group": "last-30-days",
        "lat": -42.698518336186446,
        "lon": -17.969954606045597,
        "alt_km": 400.430276962049,
        "timestamp": "2025-12-22T11:33:19.152960+00:00",
        "meta_object_name": "STARLINK-35868",
        "meta_object_id": "2025-268Y",
        "meta_epoch": "2025-12-22T04:00:01.998720",
        "meta_mean_motion": 15.56418861,
        "meta_eccentricity": 0.0001666,
        "meta_inclination": 43.0006,
        "meta_ra_of_asc_node": 65.857,
        "meta_arg_of_pericenter": 251.5341,
        "meta_mean_anomaly": 58.4982,
        "meta_ephemeris_type": 0,
        "meta_classification_type": "U",
        "meta_norad_cat_id": 66579,
        "meta_element_set_no": 999,
        "meta_rev_at_epoch": 616,
        "meta_bstar": -0.00069799,
        "meta_mean_motion_dot": -0.00050696,
        "meta_mean_motion_ddot": 0,
        "tle_line1": "1 66579U 25268Y   25356.16668980 -.00050696  00000+0 -69799-3 0  9991",
        "tle_line2": "2 66579  43.0006  65.8570 0001666 251.5341  58.4982 15.56418861  6163"
      },
      "geometry": {
        "type": "Point",
        "coordinates": [
          -17.969954606045597,
          -42.698518336186446
        ]
      }
    },
    {
      "type": "Feature",
      "properties": {
        "norad_id": 66580,
        "name": "STARLINK-35872",
        "group": "last-30-days",
        "lat": -42.48310963658831,
        "lon": -15.3466869610957,
        "alt_km": 400.47116405034467,
        "timestamp": "2025-12-22T11:33:19.152970+00:00",
        "meta_object_name": "STARLINK-35872",
        "meta_object_id": "2025-268Z",
        "meta_epoch": "2025-12-22T04:00:01.998720",
        "meta_mean_motion": 15.56486942,
        "meta_eccentricity": 0.0001555,
        "meta_inclination": 43.0006,
        "meta_ra_of_asc_node": 65.8534,
        "meta_arg_of_pericenter": 259.5383,
        "meta_mean_anomaly": 52.4105,
        "meta_ephemeris_type": 0,
        "meta_classification_type": "U",
        "meta_norad_cat_id": 66580,
        "meta_element_set_no": 999,
        "meta_rev_at_epoch": 608,
        "meta_bstar": -0.0023407,
        "meta_mean_motion_dot": -0.00167129,
        "meta_mean_motion_ddot": 0,
        "tle_line1": "1 66580U 25268Z   25356.16668980 -.00167129  00000+0 -23407-2 0  9998",
        "tle_line2": "2 66580  43.0006  65.8534 0001555 259.5383  52.4105 15.56486942  6083"
      },
      "geometry": {
        "type": "Point",
        "coordinates": [
          -15.3466869610957,
          -42.48310963658831
        ]
      }
    },
    {
      "type": "Feature",
      "properties": {
        "norad_id": 66581,
        "name": "STARLINK-35744",
        "group": "last-30-days",
        "lat": -42.21835981189369,
        "lon": -12.832424870556489,
        "alt_km": 400.4470253718637,
        "timestamp": "2025-12-22T11:33:19.152980+00:00",
        "meta_object_name": "STARLINK-35744",
        "meta_object_id": "2025-268AA",
        "meta_epoch": "2025-12-22T04:00:01.998720",
        "meta_mean_motion": 15.56418215,
        "meta_eccentricity": 0.0001582,
        "meta_inclination": 43.0007,
        "meta_ra_of_asc_node": 65.8475,
        "meta_arg_of_pericenter": 257.3237,
        "meta_mean_anomaly": 56.5423,
        "meta_ephemeris_type": 0,
        "meta_classification_type": "U",
        "meta_norad_cat_id": 66581,
        "meta_element_set_no": 999,
        "meta_rev_at_epoch": 613,
        "meta_bstar": -0.0006578,
        "meta_mean_motion_dot": -0.00047814,
        "meta_mean_motion_ddot": 0,
        "tle_line1": "1 66581U 25268AA  25356.16668980 -.00047814  00000+0 -65780-3 0  9998",
        "tle_line2": "2 66581  43.0007  65.8475 0001582 257.3237  56.5423 15.56418215  6135"
      },
      "geometry": {
        "type": "Point",
        "coordinates": [
          -12.832424870556489,
          -42.21835981189369
        ]
      }
    }
  ]
}